DUBAISAT-1              
1 35682U 09041B   26194.33962990  .00000408  00000+0  67878-4 0  9992
2 35682  98.0080 327.3157 0010060 354.7546   5.3556 14.75165052908951
OCEANSAT-2              
1 35931U 09051A   26194.57791150 -.00000123  00000+0 -58490-4 0  9990
2 35931  98.2319 178.7945 0017238 158.1517 202.0389 13.99656190883029
WORLDVIEW-2 (WV-2)      
1 35946U 09055A   26194.60643421  .00000033  00000+0  25356-4 0  9994
2 35946  98.4757 267.6963 0005249 133.7445 226.4177 14.37906646879442
SMOS                    
1 36036U 09059A   26194.52846771  .00000146  00000+0  60358-4 0  9999
2 36036  98.4427  21.4773 0001141  95.9908 264.1411 14.39735488877244
YAOGAN-7                
1 36110U 09069A   26194.62672195  .00000222  00000+0  38051-4 0  9991
2 36110  98.0035  80.3264 0023605 316.6403  43.2950 14.78034630893537
TANDEM-X                
1 36605U 10030A   26188.47915494  .00000386  00000+0  21566-4 0  9992
2 36605  97.4457 195.8973 0001887  94.3019 265.8431 15.19154052889726
CARTOSAT-2B             
1 36795U 10035A   26194.59598336  .00000640  00000+0  94462-4 0  9997
2 36795  97.9946 244.9746 0012583 103.8282 256.4330 14.78617709863757
YAOGAN-10               
1 36834U 10038A   26194.63901347  .00000999  00000+0  12225-3 0  9992
2 36834  97.8971 217.8321 0001590  82.8787  63.8749 14.85425637861137
COSMO-SKYMED 4          
1 37216U 10060A   26194.63782971 -.00000276  00000+0 -28158-4 0  9995
2 37216  97.8889  17.8552 0001489  85.2159 274.9224 14.82146865848487
RESOURCESAT-2           
1 37387U 11015A   26194.62333604  .00000034  00000+0  35662-4 0  9997
2 37387  98.7633 261.8809 0011510 175.4970 184.6313 14.21605668789932
RASAT                   
1 37791U 11044D   26194.63361527  .00000159  00000+0  35991-4 0  9997
2 37791  98.0585 285.6273 0021899 107.2788  22.9106 14.68191508797061
SRMSAT                  
1 37841U 11058D   26194.45621951  .00000344  00000+0  42889-4 0  9998
2 37841  19.9713 260.4725 0011810 132.1672 338.6137 14.11580880761533
PLEIADES 1A             
1 38012U 11076F   26194.62026762  .00000416  00000+0  99245-4 0  9995
2 38012  98.1976 269.3669 0001716  80.8874  55.2884 14.58547348775849
ZIYUAN 1-02C (ZY 1-02C) 
1 38038U 11079A   26194.66235852  .00000530  00000+0  18869-3 0  9991
2 38038  98.4068 261.4163 0005469 219.9897 258.3458 14.38235995763012
ARIRANG-3 (KOMPSAT-3)   
1 38338U 12025B   26194.58356314  .00000186  00000+0  46229-4 0  9993
2 38338  98.1184 151.5904 0006314  43.1047 317.0648 14.62228208755209
EXACTVIEW-1 (ADS-1B)    
1 38709U 12039C   26193.86946490  .00000033  00000+0  33754-4 0  9990
2 38709  98.9801 311.8429 0011950  97.5787 262.6750 14.24991882726361
SPOT 6                  
1 38755U 12047A   26194.60970780  .00000285  00000+0  71227-4 0  9998
2 38755  98.2115 261.6077 0001124  84.0387 276.0940 14.58538799736905
PLEIADES 1B             
1 39019U 12068A   26194.55969572  .00000289  00000+0  72110-4 0  9992
2 39019  98.1947 269.2472 0001615  79.9903 280.1478 14.58534361724692
GOKTURK 2               
1 39030U 12073A   26194.66326529  .00000418  00000+0  68265-4 0  9992
2 39030  97.6811  30.7670 0000903  88.9575 271.1739 14.75568425728415
LANDSAT 8               
1 39084U 13008A   26194.59999292  .00000151  00000+0  43664-4 0  9995
2 39084  98.2291 264.4201 0001334  94.4390 265.6961 14.57111205701747
SARAL                   
1 39086U 13009A   26194.64608838  .00000041  00000+0  30927-4 0  9993
2 39086  98.5554  20.8787 0001604 170.5930 189.5285 14.32895557699395
GAOFEN-1                
1 39150U 13018A   26194.62795319  .00000636  00000+0  98385-4 0  9996
2 39150  97.9093 266.1570 0016927 176.1151 184.0194 14.76518524712146
VNREDSAT 1              
1 39160U 13021B   26194.66022169  .00000583  00000+0  11757-3 0  9999
2 39160  97.9073 247.0587 0001627  79.0978 281.0409 14.64883912704163
ARIRANG-5 (KOMPSAT-5)   
1 39227U 13042A   26194.56982082  .00000555  00000+0  43940-4 0  9993
2 39227  97.6210  20.9002 0005576  63.3865 296.7931 15.04523893707828
SKYSAT-A                
1 39418U 13066C   26194.64476497  .00001523  00000+0  89241-4 0  9998
2 39418  97.3804 243.1988 0020332 219.0618 140.9147 15.13110069692482
DUBAISAT-2              
1 39419U 13066D   26194.57271519  .00002576  00000+0  16063-3 0  9999
2 39419  97.4572 184.0297 0009646 309.2564  50.7810 15.10369862690374
GPM-CORE                
1 39574U 14009C   26194.55734310  .00003395  00000+0  76892-4 0  9997
2 39574  64.9692 219.7760 0010991 261.5237  98.4658 15.45031073701887
SENTINEL-1A             
1 39634U 14016A   26194.63033038  .00000185  00000+0  48924-4 0  9999
2 39634  98.1781 201.7770 0001432  85.5365 274.5998 14.59201068653876
KAZEOSAT 1              
1 39731U 14024A   26194.59626427  .00000336  00000+0  11538-3 0  9999
2 39731  98.3205 266.3851 0001253  81.9467 278.1865 14.42037811642368
