OBJECT_NAME,OBJECT_ID,EPOCH,MEAN_MOTION,ECCENTRICITY,INCLINATION,RA_OF_ASC_NODE,ARG_OF_PERICENTER,MEAN_ANOMALY,EPHEMERIS_TYPE,CLASSIFICATION_TYPE,NORAD_CAT_ID,ELEMENT_SET_NO,REV_AT_EPOCH,BSTAR,MEAN_MOTION_DOT,MEAN_MOTION_DDOT
DUBAISAT-1,2009-041B,2026-07-13T08:09:04.023360,14.75165052,.00100604,98.0080,327.3157,354.7546,5.3556,0,U,35682,999,90895,.67877928E-4,.408E-5,0
OCEANSAT-2,2009-051A,2026-07-13T13:52:11.553600,13.99656190,.00172382,98.2319,178.7945,158.1517,202.0389,0,U,35931,999,88302,-.5848993E-4,-.123E-5,0
WORLDVIEW-2 (WV-2),2009-055A,2026-07-13T14:33:15.915744,14.37906646,.00052499,98.4757,267.6963,133.7445,226.4177,0,U,35946,999,87944,.25355963E-4,.33E-6,0
SMOS,2009-059A,2026-07-13T12:40:59.610144,14.39735488,.00011413,98.4427,21.4773,95.9908,264.1411,0,U,36036,999,87724,.60357533E-4,.146E-5,0
YAOGAN-7,2009-069A,2026-07-13T15:02:28.776480,14.78034630,.00236052,98.0035,80.3264,316.6403,43.2950,0,U,36110,999,89353,.38051023E-4,.222E-5,0
TANDEM-X,2010-030A,2026-07-07T11:29:58.986816,15.19154052,.0001887,97.4457,195.8973,94.3019,265.8431,0,U,36605,999,88972,.21566E-4,.386E-5,0
CARTOSAT-2B,2010-035A,2026-07-13T14:18:12.962304,14.78617709,.00125836,97.9946,244.9746,103.8282,256.4330,0,U,36795,999,86375,.94461623E-4,.64E-5,0
YAOGAN-10,2010-038A,2026-07-13T15:20:10.763808,14.85425637,.000159,97.8971,217.8321,82.8787,63.8749,0,U,36834,999,86113,.12224895E-3,.999E-5,0
COSMO-SKYMED 4,2010-060A,2026-07-13T15:18:28.486944,14.82146865,.00014895,97.8889,17.8552,85.2159,274.9224,0,U,37216,999,84848,-.281583E-4,-.276E-5,0
RESOURCESAT-2,2011-015A,2026-07-13T14:57:36.233856,14.21605668,.00115103,98.7633,261.8809,175.4970,184.6313,0,U,37387,999,78993,.35662155E-4,.34E-6,0
RASAT,2011-044D,2026-07-13T15:12:24.359328,14.68191508,.00218992,98.0585,285.6273,107.2788,22.9106,0,U,37791,999,79706,.35990688E-4,.159E-5,0
SRMSAT,2011-058D,2026-07-13T10:56:57.365664,14.11580880,.00118107,19.9713,260.4725,132.1672,338.6137,0,U,37841,999,76153,.42888582E-4,.344E-5,0
PLEIADES 1A,2011-076F,2026-07-13T14:53:11.122368,14.58547348,.00017162,98.1976,269.3669,80.8874,55.2884,0,U,38012,999,77584,.99244664E-4,.416E-5,0
ZIYUAN 1-02C (ZY 1-02C),2011-079A,2026-07-13T15:53:47.776128,14.38235995,.00054697,98.4068,261.4163,219.9897,258.3458,0,U,38038,999,76301,.1886936E-3,.53E-5,0
ARIRANG-3 (KOMPSAT-3),2012-025B,2026-07-13T14:00:19.855296,14.62228208,.00063147,98.1184,151.5904,43.1047,317.0648,0,U,38338,999,75520,.46228583E-4,.186E-5,0
EXACTVIEW-1 (ADS-1B),2012-039C,2026-07-12T20:52:01.767360,14.24991882,.00119506,98.9801,311.8429,97.5787,262.6750,0,U,38709,999,72636,.33754437E-4,.33E-6,0
SPOT 6,2012-047A,2026-07-13T14:37:58.753920,14.58538799,.0001124,98.2115,261.6077,84.0387,276.0940,0,U,38755,999,73690,.71226563E-4,.285E-5,0
PLEIADES 1B,2012-068A,2026-07-13T13:25:57.710208,14.58534361,.0001615,98.1947,269.2472,79.9903,280.1478,0,U,39019,999,72469,.72110269E-4,.289E-5,0
GOKTURK 2,2012-073A,2026-07-13T15:55:06.121056,14.75568425,.00009034,97.6811,30.7670,88.9575,271.1739,0,U,39030,999,72841,.68264813E-4,.418E-5,0
LANDSAT 8,2013-008A,2026-07-13T14:23:59.388288,14.57111205,.00013344,98.2291,264.4201,94.4390,265.6961,0,U,39084,999,70174,.43663642E-4,.151E-5,0
SARAL,2013-009A,2026-07-13T15:30:22.036032,14.32895557,.00016048,98.5554,20.8787,170.5930,189.5285,0,U,39086,999,69939,.30926765E-4,.41E-6,0
GAOFEN-1,2013-018A,2026-07-13T15:04:15.155616,14.76518524,.0016927,97.9093,266.1570,176.1151,184.0194,0,U,39150,999,71214,.98385101E-4,.636E-5,0
VNREDSAT 1,2013-021B,2026-07-13T15:50:43.154016,14.64883912,.00016274,97.9073,247.0587,79.0978,281.0409,0,U,39160,999,70416,.11756621E-3,.583E-5,0
ARIRANG-5 (KOMPSAT-5),2013-042A,2026-07-13T13:40:32.518848,15.04523893,.00055762,97.6210,20.9002,63.3865,296.7931,0,U,39227,999,70782,.43940054E-4,.555E-5,0
SKYSAT-A,2013-066C,2026-07-13T15:28:27.693408,15.13110069,.00203329,97.3804,243.1988,219.0618,140.9147,0,U,39418,999,69248,.89241227E-4,.1523E-4,0
DUBAISAT-2,2013-066D,2026-07-13T13:44:42.592416,15.10369862,.00096464,97.4572,184.0297,309.2564,50.7810,0,U,39419,999,69037,.16063144E-3,.2576E-4,0
GPM-CORE,2014-009C,2026-07-13T13:22:34.443840,15.45031073,.00109912,64.9692,219.7760,261.5237,98.4658,0,U,39574,999,70188,.76892131E-4,.3395E-4,0
SENTINEL-1A,2014-016A,2026-07-13T15:07:40.544832,14.59201068,.00014322,98.1781,201.7770,85.5365,274.5998,0,U,39634,999,65387,.48924159E-4,.185E-5,0
KAZEOSAT 1,2014-024A,2026-07-13T14:18:37.232928,14.42037811,.00012535,98.3205,266.3851,81.9467,278.1865,0,U,39731,999,64236,.11538379E-3,.336E-5,0
